0 IRIDIUM 33 DEB
1 38232U 97051ZG  13277.46275939  .00004219  00000-0  19805-2 0  1000
2 38232 086.4772 175.7943 0107039 166.1855 194.2258 14.16902340223662
0 IRIDIUM 33 DEB
1 38232U 97051ZG  13281.41750772  .00004226  00000-0  19821-2 0  1010
2 38232 086.4762 174.2191 0107245 153.6255 207.0445 14.16935794224227
0 IRIDIUM 33 DEB
1 38232U 97051ZG  13283.95979449  .00004228  00000-0  19821-2 0  1028
2 38232 086.4762 173.2086 0107227 145.5574 215.2624 14.16957145224586
0 IRIDIUM 33 DEB
1 38232U 97051ZG  13286.99635309  .00004467  00000-0  20883-2 0  1035
2 38232 086.4766 172.0046 0109462 135.8344 225.2317 14.16988483225011
0 IRIDIUM 33 DEB
1 38232U 97051ZG  13287.42004050  .00004608  00000-0  21471-2 0  1049
2 38232 086.4826 171.8379 0112591 135.1291 225.9709 14.16995252225075
0 IRIDIUM 33 DEB
1 38232U 97051ZG  13289.96220038  .00004753  00000-0  22192-2 0  1059
2 38232 086.4794 170.8268 0110192 126.6029 234.5887 14.17022051225436
0 IRIDIUM 33 DEB
1 38232U 97051ZG  13290.95079742  .00004905  00000-0  22954-2 0  1060
2 38232 086.4775 170.4277 0107918 123.0524 238.1694 14.17035043225570
0 IRIDIUM 33 DEB
1 38232U 97051ZG  13291.37447098  .00004963  00000-0  23190-2 0  1078
2 38232 086.4794 170.2660 0109461 121.4964 239.7132 14.17040506225631
